     2.100          NAVIGATION                              RINEX VERSION / TYPE
fic2rin                                 05/24/2010 00:09:53 PGM / RUN BY / DATE
                                                            END OF HEADER
27 10  5 23 18  0  0.0  .154577195644D-03  .341060513165D-11  .000000000000D+00
     .820000000000D+02 -.269375000000D+02  .389444793367D-08 -.207726352659D+01
    -.120326876640D-05  .215152750025D-01  .119190663099D-04  .515363178825D+04
     .648000000000D+05  .255182385445D-06  .245915242342D+01  .361353158951D-06
     .978487891205D+00  .151843750000D+03 -.141929543917D+01 -.741530887738D-08
     .194293807403D-09  .100000000000D+01  .158500000000D+04  .000000000000D+00
     .340000000000D+01  .000000000000D+00 -.419095158577D-08  .820000000000D+02
     .576060000000D+05  .400000000000D+01
28 10  5 23 18  0  0.0 -.154804438353D-04  .102318153949D-11  .000000000000D+00
     .350000000000D+02  .781250000000D+01  .466448000860D-08 -.101455965477D+01
     .536441802979D-06  .159454281675D-01  .598281621933D-05  .515366470146D+04
     .648000000000D+05  .000000000000D+00 -.268942761384D+01  .342726707458D-06
     .970349113244D+00  .270156250000D+03 -.195429358063D+01 -.834070456668D-08
     .141791620476D-09  .100000000000D+01  .158500000000D+04  .000000000000D+00
     .240000000000D+01  .000000000000D+00 -.107102096081D-07  .350000000000D+02
     .576060000000D+05  .400000000000D+01
29 10  5 23 18  0  0.0  .121998600662D-03  .295585778076D-11  .000000000000D+00
     .110000000000D+03 -.464375000000D+02  .470233872843D-08  .108101333757D+01
    -.250525772572D-05  .305086770095D-02  .830553472042D-05  .515373394775D+04
     .648000000000D+05  .391155481339D-07 -.164574360810D+01 -.931322574615D-07
     .960129552290D+00  .219593750000D+03 -.128911137017D+01 -.817784063989D-08
    -.476091259683D-09  .100000000000D+01  .158500000000D+04  .000000000000D+00
     .340000000000D+01  .000000000000D+00 -.884756445885D-08  .110000000000D+03
     .576060000000D+05  .400000000000D+01
30 10  5 23 18  0  0.0  .245330855250D-03  .352429196937D-11  .000000000000D+00
     .170000000000D+02  .186562500000D+02  .501306595718D-08 -.567881597954D+00
     .105798244476D-05  .122094940161D-01  .646151602268D-05  .515372621727D+04
     .648000000000D+05 -.137835741043D-06 -.276806844877D+01  .819563865662D-07
     .956219489717D+00  .252281250000D+03  .148015753601D+01 -.853964142463D-08
     .323227749447D-09  .100000000000D+01  .158500000000D+04  .000000000000D+00
     .240000000000D+01  .000000000000D+00 -.791624188423D-08  .170000000000D+02
     .576060000000D+05  .400000000000D+01
31 10  5 23 18  0  0.0 -.349800102413D-04  .204636307899D-11  .000000000000D+00
     .890000000000D+02 -.427812500000D+02  .401945314064D-08  .179546955770D+01
    -.211410224438D-05  .740458443761D-02  .105965882540D-04  .515369204521D+04
     .648000000000D+05  .141561031342D-06  .251492656579D+01 -.465661287308D-07
     .977014211901D+00  .177968750000D+03 -.105353793666D+01 -.765710466343D-08
     .378587198248D-10  .100000000000D+01  .158500000000D+04  .000000000000D+00
     .240000000000D+01  .000000000000D+00 -.130385160446D-07  .890000000000D+02
     .576060000000D+05  .400000000000D+01
 1 10  5 23 17 59 28.0 -.122513156384D-03 -.409272615798D-11  .000000000000D+00
     .700000000000D+01  .171562500000D+02  .594417617023D-08 -.975427903996D+00
     .795349478722D-06  .470356573351D-02  .616535544395D-05  .515479384041D+04
     .647680000000D+05  .614672899246D-07 -.272891025576D+01  .104308128357D-06
     .964830885308D+00  .261937500000D+03  .865910487482D+00 -.819426989566D-08
     .207508643568D-09  .100000000000D+01  .158500000000D+04  .000000000000D+00
     .240000000000D+01  .630000000000D+02 -.190921127796D-07  .700000000000D+01
     .642060000000D+05  .400000000000D+01
 1 10  5 23 19 59 28.0 -.122542027384D-03 -.409272615798D-11  .000000000000D+00
     .800000000000D+01  .163750000000D+02  .609275378765D-08  .740141195109D-01
     .994652509689D-06  .470324174967D-02  .613369047642D-05  .515479302406D+04
     .719680000000D+05 -.149011611938D-07 -.272896989746D+01  .242143869400D-07
     .964832045402D+00  .258437500000D+03  .865976298314D+00 -.829463121897D-08
     .232152527227D-09  .100000000000D+01  .158500000000D+04  .000000000000D+00
     .240000000000D+01  .630000000000D+02 -.190921127796D-07  .800000000000D+01
     .648060000000D+05  .400000000000D+01
 2 10  5 23 20  0  0.0  .258314423263D-03  .341060513165D-11  .000000000000D+00
     .180000000000D+02  .622187500000D+02  .459840582777D-08 -.180007766188D+01
     .313110649586D-05  .955120811705D-02  .116471201181D-04  .515359117126D+04
     .720000000000D+05 -.106170773506D-06 -.645340563311D+00 -.838190317154D-07
     .940037073209D+00  .146031250000D+03  .306884742094D+01 -.802176271004D-08
     .135719938995D-09  .100000000000D+01  .158500000000D+04  .000000000000D+00
     .240000000000D+01  .000000000000D+00 -.172294676304D-07  .180000000000D+02
     .648060000000D+05  .400000000000D+01
 3 10  5 23 20  0  0.0  .558917876333D-03  .500222085975D-11  .000000000000D+00
     .550000000000D+02 -.498125000000D+02  .538915305128D-08 -.187109687648D+01
    -.254996120930D-05  .130918266950D-01  .617839396000D-05  .515370425987D+04
     .720000000000D+05  .238418579102D-06 -.179799491857D+01 -.182539224625D-06
     .926808019126D+00  .240062500000D+03  .994006678334D+00 -.835034782550D-08
    -.372158359032D-09  .100000000000D+01  .158500000000D+04  .000000000000D+00
     .340000000000D+01  .000000000000D+00 -.465661287308D-08  .550000000000D+02
     .648060000000D+05  .400000000000D+01
 4 10  5 23 20  0  0.0  .883517786860D-04  .829913915368D-11  .000000000000D+00
     .270000000000D+02  .634062500000D+02  .473448292450D-08  .129393404200D+01
     .341609120369D-05  .908339675516D-02  .110231339931D-04  .515369707298D+04
     .720000000000D+05 -.137835741043D-06 -.627477844948D+00  .279396772385D-07
     .939188696293D+00  .158312500000D+03  .606401015105D+00 -.816712590786D-08
    -.133576992589D-09  .100000000000D+01  .158500000000D+04  .000000000000D+00
     .240000000000D+01  .000000000000D+00 -.605359673500D-08  .270000000000D+02
     .648060000000D+05  .400000000000D+01
 5 10  5 23 20  0  0.0 -.400282442570D-05 -.136424205266D-11  .000000000000D+00
     .310000000000D+02  .689062500000D+02  .479305679291D-08 -.211545482438D+00
     .377371907234D-05  .183552340604D-02  .382214784622D-05  .515370846367D+04
     .720000000000D+05  .372529029846D-07  .413946094265D+00 -.670552253723D-07
     .958680765999D+00  .302968750000D+03  .297414326420D+00 -.846570977365D-08
     .300726812193D-09  .100000000000D+01  .158500000000D+04  .000000000000D+00
     .240000000000D+01  .000000000000D+00 -.884756445885D-08  .310000000000D+02
     .648060000000D+05  .400000000000D+01
 6 10  5 23 20  0  0.0  .630970112979D-03 -.115960574476D-10  .000000000000D+00
     .380000000000D+02 -.513125000000D+02  .530700677242D-08  .349823417812D+00
    -.275298953056D-05  .629733689129D-02  .730343163013D-05  .515365555954D+04
     .720000000000D+05  .521540641785D-07 -.172738193584D+01 -.180676579475D-06
     .934127374246D+00  .228875000000D+03 -.106424272559D+01 -.855857078454D-08
    -.547522806523D-09  .100000000000D+01  .158500000000D+04  .000000000000D+00
     .240000000000D+01  .000000000000D+00 -.512227416039D-08  .380000000000D+02
     .648060000000D+05  .400000000000D+01
 7 10  5 23 20  0  0.0 -.701285898685D-06 -.341060513165D-12  .000000000000D+00
     .350000000000D+02 -.329062500000D+02  .415910181471D-08  .290264039133D+01
    -.165030360222D-05  .350688549224D-02  .107381492853D-04  .515371992683D+04
     .720000000000D+05 -.968575477600D-07  .251530310774D+01 -.130385160446D-07
     .971755903545D+00  .181156250000D+03  .303562112228D+01 -.777568103118D-08
     .186793494985D-09  .100000000000D+01  .158500000000D+04  .000000000000D+00
     .240000000000D+01  .000000000000D+00 -.102445483208D-07  .350000000000D+02
     .648060000000D+05  .400000000000D+01
 8 10  5 23 20  0  0.0  .549014657736D-05  .113686837722D-12  .000000000000D+00
     .960000000000D+02 -.235000000000D+02  .374372736984D-08  .226439219824D+01
    -.105239450932D-05  .110765348654D-01  .112913548946D-04  .515369479370D+04
     .720000000000D+05 -.158324837685D-06  .258311625837D+01  .219792127609D-06
     .993166926783D+00  .182718750000D+03  .310023820361D+01 -.756852954535D-08
     .164292557730D-09  .100000000000D+01  .158500000000D+04  .000000000000D+00
     .340000000000D+01  .000000000000D+00 -.372529029846D-08  .960000000000D+02
     .648060000000D+05  .400000000000D+01
 9 10  5 23 20  0  0.0  .827899202704D-05  .227373675443D-11  .000000000000D+00
     .820000000000D+02 -.405625000000D+02  .385908931799D-08  .215702783433D+01
    -.227615237236D-05  .170268246438D-01  .116936862469D-04  .515371929550D+04
     .720000000000D+05  .204890966415D-06  .248407498255D+01 -.141561031342D-06
     .980841281668D+00  .158593750000D+03  .151627694096D+01 -.743745265690D-08
     .142148778210D-09  .100000000000D+01  .158500000000D+04  .000000000000D+00
     .240000000000D+01  .000000000000D+00 -.558793544769D-08  .820000000000D+02
     .648060000000D+05  .400000000000D+01
10 10  5 23 20  0  0.0 -.431644730270D-04 -.795807864051D-12  .000000000000D+00
     .280000000000D+02  .629375000000D+02  .497913597243D-08 -.141511208156D+00
     .347197055817D-05  .916361634154D-02  .369176268578D-05  .515350675201D+04
     .720000000000D+05  .912696123123D-07  .439727528211D+00  .856816768646D-07
     .953691571665D+00  .305468750000D+03  .666803125152D+00 -.864071706341D-08
     .250367571671D-09  .100000000000D+01  .158500000000D+04  .000000000000D+00
     .240000000000D+01  .000000000000D+00 -.279396772385D-08  .280000000000D+02
     .648060000000D+05  .400000000000D+01
